CCSDS_OMM_VERS = 2.0
CREATION_DATE  = 
ORIGINATOR     = 

OBJECT_NAME    = DELTA 2 R/B(1)
OBJECT_ID      = 1990-008B
CENTER_NAME    = EARTH
REF_FRAME      = TEME
TIME_SYSTEM    = UTC
MEAN_ELEMENT_THEORY = SGP/SGP4

EPOCH          = 2026-02-02T09:55:36.009408
MEAN_MOTION    = 15.51067649
ECCENTRICITY   = .00977069
INCLINATION    = 35.6059
RA_OF_ASC_NODE = 45.4964
ARG_OF_PERICENTER = 290.5744
MEAN_ANOMALY   = 68.4531

EPHEMERIS_TYPE = 0
CLASSIFICATION_TYPE = U
NORAD_CAT_ID   = 20453
ELEMENT_SET_NO = 999
REV_AT_EPOCH   = 92064
BSTAR          = .83464337E-3
MEAN_MOTION_DOT = .61785E-3
MEAN_MOTION_DDOT = 0

CCSDS_OMM_VERS = 2.0
CREATION_DATE  = 
ORIGINATOR     = 

OBJECT_NAME    = COSMOS 2058
OBJECT_ID      = 1990-010A
CENTER_NAME    = EARTH
REF_FRAME      = TEME
TIME_SYSTEM    = UTC
MEAN_ELEMENT_THEORY = SGP/SGP4

EPOCH          = 2026-02-02T13:16:57.262656
MEAN_MOTION    = 15.10994237
ECCENTRICITY   = .00120587
INCLINATION    = 82.4635
RA_OF_ASC_NODE = 82.0424
ARG_OF_PERICENTER = 94.8575
MEAN_ANOMALY   = 265.4032

EPHEMERIS_TYPE = 0
CLASSIFICATION_TYPE = U
NORAD_CAT_ID   = 20465
ELEMENT_SET_NO = 999
REV_AT_EPOCH   = 93693
BSTAR          = .22348273E-3
MEAN_MOTION_DOT = .3765E-4
MEAN_MOTION_DDOT = 0

CCSDS_OMM_VERS = 2.0
CREATION_DATE  = 
ORIGINATOR     = 

OBJECT_NAME    = SL-14 R/B
OBJECT_ID      = 1990-010B
CENTER_NAME    = EARTH
REF_FRAME      = TEME
TIME_SYSTEM    = UTC
MEAN_ELEMENT_THEORY = SGP/SGP4

EPOCH          = 2026-02-02T05:01:53.679648
MEAN_MOTION    = 14.83535368
ECCENTRICITY   = .0021204
INCLINATION    = 82.5038
RA_OF_ASC_NODE = 300.7149
ARG_OF_PERICENTER = 59.0836
MEAN_ANOMALY   = 301.2460

EPHEMERIS_TYPE = 0
CLASSIFICATION_TYPE = U
NORAD_CAT_ID   = 20466
ELEMENT_SET_NO = 999
REV_AT_EPOCH   = 92322
BSTAR          = .61654E-4
MEAN_MOTION_DOT = .533E-5
MEAN_MOTION_DDOT = 0

CCSDS_OMM_VERS = 2.0
CREATION_DATE  = 
ORIGINATOR     = 

OBJECT_NAME    = SL-14 R/B
OBJECT_ID      = 1990-018B
CENTER_NAME    = EARTH
REF_FRAME      = TEME
TIME_SYSTEM    = UTC
MEAN_ELEMENT_THEORY = SGP/SGP4

EPOCH          = 2026-02-02T14:21:32.104800
MEAN_MOTION    = 14.82108109
ECCENTRICITY   = .0015708
INCLINATION    = 82.5189
RA_OF_ASC_NODE = 255.8968
ARG_OF_PERICENTER = 202.9944
MEAN_ANOMALY   = 157.0569

EPHEMERIS_TYPE = 0
CLASSIFICATION_TYPE = U
NORAD_CAT_ID   = 20511
ELEMENT_SET_NO = 999
REV_AT_EPOCH   = 91738
BSTAR          = .50293039E-4
MEAN_MOTION_DOT = .424E-5
MEAN_MOTION_DDOT = 0

CCSDS_OMM_VERS = 2.0
CREATION_DATE  = 
ORIGINATOR     = 

OBJECT_NAME    = HST
OBJECT_ID      = 1990-037B
CENTER_NAME    = EARTH
REF_FRAME      = TEME
TIME_SYSTEM    = UTC
MEAN_ELEMENT_THEORY = SGP/SGP4

EPOCH          = 2026-02-01T23:35:39.648192
MEAN_MOTION    = 15.28901089
ECCENTRICITY   = .00020104
INCLINATION    = 28.4672
RA_OF_ASC_NODE = 283.4789
ARG_OF_PERICENTER = 78.1649
MEAN_ANOMALY   = 281.9172

EPHEMERIS_TYPE = 0
CLASSIFICATION_TYPE = U
NORAD_CAT_ID   = 20580
ELEMENT_SET_NO = 999
REV_AT_EPOCH   = 76784
BSTAR          = .24825135E-3
MEAN_MOTION_DOT = .7402E-4
MEAN_MOTION_DDOT = 0

CCSDS_OMM_VERS = 2.0
CREATION_DATE  = 
ORIGINATOR     = 

OBJECT_NAME    = SL-16 R/B
OBJECT_ID      = 1990-046B
CENTER_NAME    = EARTH
REF_FRAME      = TEME
TIME_SYSTEM    = UTC
MEAN_ELEMENT_THEORY = SGP/SGP4

EPOCH          = 2026-02-02T08:25:49.188000
MEAN_MOTION    = 14.15004961
ECCENTRICITY   = .00144411
INCLINATION    = 70.9994
RA_OF_ASC_NODE = 12.1277
ARG_OF_PERICENTER = 348.6776
MEAN_ANOMALY   = 11.4020

EPHEMERIS_TYPE = 0
CLASSIFICATION_TYPE = U
NORAD_CAT_ID   = 20625
ELEMENT_SET_NO = 999
REV_AT_EPOCH   = 84339
BSTAR          = -.45811148E-4
MEAN_MOTION_DOT = -.137E-5
MEAN_MOTION_DDOT = 0

CCSDS_OMM_VERS = 2.0
CREATION_DATE  = 
ORIGINATOR     = 

OBJECT_NAME    = COSMOS 2084
OBJECT_ID      = 1990-055A
CENTER_NAME    = EARTH
REF_FRAME      = TEME
TIME_SYSTEM    = UTC
MEAN_ELEMENT_THEORY = SGP/SGP4

EPOCH          = 2026-02-02T14:03:45.667872
MEAN_MOTION    = 15.05419426
ECCENTRICITY   = .00227267
INCLINATION    = 62.7898
RA_OF_ASC_NODE = 95.2848
ARG_OF_PERICENTER = 182.8612
MEAN_ANOMALY   = 177.2362

EPHEMERIS_TYPE = 0
CLASSIFICATION_TYPE = U
NORAD_CAT_ID   = 20663
ELEMENT_SET_NO = 999
REV_AT_EPOCH   = 93103
BSTAR          = .20609093E-3
MEAN_MOTION_DOT = .2784E-4
MEAN_MOTION_DDOT = 0

CCSDS_OMM_VERS = 2.0
CREATION_DATE  = 
ORIGINATOR     = 

OBJECT_NAME    = SL-6 R/B(2)
OBJECT_ID      = 1990-055D
CENTER_NAME    = EARTH
REF_FRAME      = TEME
TIME_SYSTEM    = UTC
MEAN_ELEMENT_THEORY = SGP/SGP4

EPOCH          = 2026-02-02T09:18:55.141344
MEAN_MOTION    = 15.03393347
ECCENTRICITY   = .00196136
INCLINATION    = 62.7842
RA_OF_ASC_NODE = 13.8800
ARG_OF_PERICENTER = 336.6180
MEAN_ANOMALY   = 23.4025

EPHEMERIS_TYPE = 0
CLASSIFICATION_TYPE = U
NORAD_CAT_ID   = 20666
ELEMENT_SET_NO = 999
REV_AT_EPOCH   = 93288
BSTAR          = .20262409E-3
MEAN_MOTION_DOT = .258E-4
MEAN_MOTION_DDOT = 0

CCSDS_OMM_VERS = 2.0
CREATION_DATE  = 
ORIGINATOR     = 

OBJECT_NAME    = SL-8 R/B
OBJECT_ID      = 1990-078B
CENTER_NAME    = EARTH
REF_FRAME      = TEME
TIME_SYSTEM    = UTC
MEAN_ELEMENT_THEORY = SGP/SGP4

EPOCH          = 2026-02-02T03:32:50.411616
MEAN_MOTION    = 14.87864158
ECCENTRICITY   = .03676162
INCLINATION    = 82.9037
RA_OF_ASC_NODE = 283.2424
ARG_OF_PERICENTER = 133.0533
MEAN_ANOMALY   = 230.2103

EPHEMERIS_TYPE = 0
CLASSIFICATION_TYPE = U
NORAD_CAT_ID   = 20775
ELEMENT_SET_NO = 999
REV_AT_EPOCH   = 80401
BSTAR          = .4344633E-3
MEAN_MOTION_DOT = .14671E-3
MEAN_MOTION_DDOT = 0

CCSDS_OMM_VERS = 2.0
CREATION_DATE  = 
ORIGINATOR     = 

OBJECT_NAME    = SL-8 R/B
OBJECT_ID      = 1991-006B
CENTER_NAME    = EARTH
REF_FRAME      = TEME
TIME_SYSTEM    = UTC
MEAN_ELEMENT_THEORY = SGP/SGP4

EPOCH          = 2026-02-02T12:59:31.929792
MEAN_MOTION    = 13.77491935
ECCENTRICITY   = .00234123
INCLINATION    = 82.9426
RA_OF_ASC_NODE = 196.1791
ARG_OF_PERICENTER = 131.8537
MEAN_ANOMALY   = 291.9307

EPHEMERIS_TYPE = 0
CLASSIFICATION_TYPE = U
NORAD_CAT_ID   = 21088
ELEMENT_SET_NO = 999
REV_AT_EPOCH   = 75923
BSTAR          = -.5520385E-5
MEAN_MOTION_DOT = .1E-6
MEAN_MOTION_DDOT = 0

CCSDS_OMM_VERS = 2.0
CREATION_DATE  = 
ORIGINATOR     = 

OBJECT_NAME    = OKEAN-3
OBJECT_ID      = 1991-039A
CENTER_NAME    = EARTH
REF_FRAME      = TEME
TIME_SYSTEM    = UTC
MEAN_ELEMENT_THEORY = SGP/SGP4

EPOCH          = 2026-02-02T10:23:35.362752
MEAN_MOTION    = 15.04518672
ECCENTRICITY   = .00162314
INCLINATION    = 82.5177
RA_OF_ASC_NODE = 10.9888
ARG_OF_PERICENTER = 91.0492
MEAN_ANOMALY   = 269.2594

EPHEMERIS_TYPE = 0
CLASSIFICATION_TYPE = U
NORAD_CAT_ID   = 21397
ELEMENT_SET_NO = 999
REV_AT_EPOCH   = 85973
BSTAR          = .21765028E-3
MEAN_MOTION_DOT = .3084E-4
MEAN_MOTION_DDOT = 0

CCSDS_OMM_VERS = 2.0
CREATION_DATE  = 
ORIGINATOR     = 

OBJECT_NAME    = COSMOS 2151
OBJECT_ID      = 1991-042A
CENTER_NAME    = EARTH
REF_FRAME      = TEME
TIME_SYSTEM    = UTC
MEAN_ELEMENT_THEORY = SGP/SGP4

EPOCH          = 2026-02-02T14:17:30.893280
MEAN_MOTION    = 14.99964230
ECCENTRICITY   = .00128314
INCLINATION    = 82.4977
RA_OF_ASC_NODE = 117.5266
ARG_OF_PERICENTER = 171.7547
MEAN_ANOMALY   = 188.3890

EPHEMERIS_TYPE = 0
CLASSIFICATION_TYPE = U
NORAD_CAT_ID   = 21422
ELEMENT_SET_NO = 999
REV_AT_EPOCH   = 85793
BSTAR          = .14860701E-3
MEAN_MOTION_DOT = .1875E-4
MEAN_MOTION_DDOT = 0

